{"type": "FeatureCollection", "features": [{"id": "2", "type": "Feature", "properties": {"STATEFP": "06", "STATENS": "01779778", "AFFGEOID": "0400000US06", "GEOID": "06", "STUSPS": "CA", "NAME": "California", "LSAD": "00", "ALAND": 403671196038, "AWATER": 20294133830}, "geometry": {"type": "MultiPolygon", "coordinates": [[[[-118.604415, 33.478552], [-118.538624, 33.477015], [-118.497435, 33.441964], [-118.477646, 33.448392], [-118.370323, 33.409285], [-118.305084, 33.310323], [-118.325244, 33.299075], [-118.374768, 33.320065], [-118.465368, 33.326056], [-118.487453, 33.350883], [-118.475331, 33.383238], [-118.48875, 33.419826], [-118.575394, 33.440179], [-118.604415, 33.478552]]], [[[-118.6105, 33.032941], [-118.573897, 33.03055], [-118.499503, 32.933654], [-118.354185, 32.820919], [-118.391834, 32.826266], [-118.431809, 32.801462], [-118.506206, 32.852985], [-118.6105, 33.032941]]], [[[-119.047038, 33.483819], [-119.028501, 33.487425], [-119.033652, 33.465753], [-119.042939, 33.470552], [-119.047038, 33.483819]]], [[[-119.372331, 34.012088], [-119.362571, 34.017148], [-119.357658, 34.015985], [-119.372331, 34.012088]]], [[[-119.441999, 34.013551], [-119.396251, 34.005918], [-119.379273, 34.009566], [-119.390816, 34.002863], [-119.441999, 34.013551]]], [[[-119.577271, 33.278582], [-119.528778, 33.285417], [-119.460592, 33.256658], [-119.434402, 33.227021], [-119.4703, 33.214731], [-119.546212, 33.232561], [-119.577271, 33.278582]]], [[[-119.929889, 34.059734], [-119.912857, 34.077508], [-119.818742, 34.052997], [-119.759428, 34.058835], [-119.686507, 34.019805], [-119.637742, 34.013178], [-119.584301, 34.053643], [-119.52064, 34.034262], [-119.560464, 33.99553], [-119.662825, 33.985889], [-119.721206, 33.959583], [-119.818249, 33.959858], [-119.873358, 33.980375], [-119.887, 34.008584], [-119.876329, 34.032087], [-119.929889, 34.059734]]], [[[-120.249536, 34.002477], [-120.043259, 34.035806], [-120.046575, 34.000002], [-120.012906, 33.980952], [-119.980156, 33.983653], [-119.968636, 33.942878], [-120.115885, 33.894361], [-120.180417, 33.925103], [-120.222106, 33.987559], [-120.249536, 34.002477]]], [[[-120.450064, 34.034194], [-120.390906, 34.051994], [-120.368278, 34.076465], [-120.358608, 34.050235], [-120.331161, 34.049097], [-120.307219, 34.022375], [-120.35793, 34.015029], [-120.450064, 34.034194]]], [[[-122.377679, 37.83046], [-122.362911, 37.822696], [-122.362294, 37.807016], [-122.372836, 37.811068], [-122.377679, 37.83046]]], [[[-122.42277, 37.825256], [-122.420248, 37.826513], [-122.420722, 37.82525], [-122.42277, 37.825256]]], [[[-122.441271, 37.855142], [-122.424651, 37.870736], [-122.41847, 37.852721], [-122.441271, 37.855142]]], [[[-123.013916, 37.700355], [-123.003507, 37.704396], [-122.998754, 37.697438], [-123.002794, 37.692736], [-123.013916, 37.700355]]], [[[-124.215001, 41.949734], [-124.216181, 41.952212], [-124.213021, 41.951023], [-124.215001, 41.949734]]], [[[-124.408601, 40.443201], [-124.329404, 40.61643], [-124.158322, 40.876069], [-124.111756, 41.026883], [-124.129132, 41.05111], [-124.153622, 41.05355], [-124.165414, 41.129822], [-124.1438, 41.144686], [-124.106986, 41.229678], [-124.066057, 41.470258], [-124.147412, 41.717955], [-124.17014, 41.743344], [-124.194953, 41.736778], [-124.254954, 41.77817], [-124.208439, 41.888192], [-124.211605, 41.99846], [-122.378511, 42.009485], [-119.999234, 41.994944], [-120.001014, 38.999574], [-118.714312, 38.102185], [-117.500117, 37.22038], [-115.852908, 35.96966], [-114.633487, 35.001857], [-114.634382, 34.87289], [-114.586842, 34.835672], [-114.552682, 34.766871], [-114.470477, 34.711368], [-114.458182, 34.657885], [-114.424202, 34.610453], [-114.436466, 34.5954], [-114.380838, 34.529724], [-114.386699, 34.457911], [-114.335372, 34.450038], [-114.226107, 34.365916], [-114.176909, 34.349306], [-114.138282, 34.30323], [-114.131211, 34.26273], [-114.164628, 34.258999], [-114.229715, 34.186928], [-114.411681, 34.110031], [-114.434181, 34.087379], [-114.438266, 34.022609], [-114.535478, 33.934651], [-114.50792, 33.903807], [-114.525872, 33.901008], [-114.503017, 33.867998], [-114.530607, 33.85544], [-114.52805, 33.814963], [-114.494197, 33.707922], [-114.531523, 33.675108], [-114.514057, 33.660179], [-114.533194, 33.65166], [-114.522071, 33.611277], [-114.540617, 33.591412], [-114.524599, 33.552231], [-114.591554, 33.499443], [-114.643302, 33.416745], [-114.725282, 33.405048], [-114.698035, 33.352442], [-114.731223, 33.302434], [-114.672088, 33.258499], [-114.689541, 33.246428], [-114.673626, 33.223121], [-114.67536, 33.185489], [-114.706488, 33.08816], [-114.68902, 33.084036], [-114.66506, 33.033908], [-114.64598, 33.048903], [-114.618788, 33.027202], [-114.52013, 33.029984], [-114.492938, 32.971781], [-114.469039, 32.972295], [-114.48092, 32.935252], [-114.462929, 32.907944], [-114.468971, 32.845155], [-114.530755, 32.793485], [-114.526856, 32.757094], [-114.618373, 32.728245], [-114.701918, 32.745548], [-114.719633, 32.718763], [-117.123668, 32.534435], [-117.137723, 32.624552], [-117.160719, 32.66568], [-117.212652, 32.687887], [-117.243128, 32.66454], [-117.256091, 32.793666], [-117.281883, 32.832839], [-117.25617, 32.859447], [-117.253679, 32.903835], [-117.312504, 33.086973], [-117.341915, 33.143313], [-117.469794, 33.296417], [-117.652692, 33.446154], [-117.714617, 33.459914], [-117.78428, 33.541843], [-117.928019, 33.607187], [-118.132698, 33.753217], [-118.180801, 33.765054], [-118.185726, 33.73296], [-118.24277, 33.743355], [-118.247115, 33.715226], [-118.267839, 33.722145], [-118.294074, 33.705149], [-118.364253, 33.738167], [-118.410465, 33.74104], [-118.428162, 33.774345], [-118.393997, 33.804183], [-118.390549, 33.838779], [-118.451436, 33.959108], [-118.524356, 34.03068], [-118.571479, 34.041738], [-118.742354, 34.03294], [-118.806552, 34.000448], [-118.854908, 34.034919], [-118.936266, 34.043618], [-119.085994, 34.099266], [-119.129252, 34.10084], [-119.216441, 34.146105], [-119.278644, 34.266902], [-119.390449, 34.318198], [-119.461036, 34.374064], [-119.563986, 34.41532], [-119.671866, 34.416096], [-119.709067, 34.395397], [-119.793567, 34.418289], [-119.878293, 34.407289], [-120.008077, 34.460447], [-120.141165, 34.473405], [-120.295051, 34.470623], [-120.452811, 34.442442], [-120.471376, 34.447846], [-120.511421, 34.522953], [-120.581293, 34.556959], [-120.636722, 34.560967], [-120.649086, 34.57863], [-120.60045, 34.70464], [-120.637415, 34.755895], [-120.610266, 34.85818], [-120.647328, 34.901133], [-120.672269, 34.90254], [-120.629931, 35.061515], [-120.646147, 35.143943], [-120.714185, 35.175998], [-120.74887, 35.177795], [-120.760492, 35.15971], [-120.856047, 35.206487], [-120.8996, 35.255337], [-120.862062, 35.346995], [-120.884757, 35.430196], [-120.907937, 35.449069], [-121.003359, 35.46071], [-121.100791, 35.548859], [-121.165758, 35.635283], [-121.28653, 35.665524], [-121.332449, 35.783106], [-121.462145, 35.88613], [-121.500832, 35.998099], [-121.574602, 36.025156], [-121.632703, 36.120463], [-121.717176, 36.195146], [-121.826282, 36.242076], [-121.851967, 36.277831], [-121.902729, 36.306379], [-121.901628, 36.387046], [-121.954209, 36.522231], [-121.924738, 36.525599], [-121.932508, 36.559935], [-121.976763, 36.579435], [-121.93643, 36.636746], [-121.889659, 36.601349], [-121.866181, 36.606562], [-121.813701, 36.682355], [-121.788278, 36.803994], [-121.862266, 36.931552], [-121.930069, 36.97815], [-121.972771, 36.954151], [-122.012739, 36.963216], [-122.065642, 36.948466], [-122.135161, 36.967774], [-122.223799, 37.025672], [-122.284882, 37.101747], [-122.337071, 37.117382], [-122.367085, 37.172817], [-122.405073, 37.195791], [-122.419113, 37.24147], [-122.40085, 37.359225], [-122.459577, 37.492731], [-122.499289, 37.495341], [-122.519533, 37.537302], [-122.520852, 37.594178], [-122.501386, 37.599637], [-122.494085, 37.644035], [-122.514483, 37.780829], [-122.476785, 37.80944], [-122.409529, 37.8089], [-122.387669, 37.788809], [-122.374609, 37.73288], [-122.359279, 37.728593], [-122.394156, 37.707636], [-122.374291, 37.662206], [-122.389313, 37.640193], [-122.355627, 37.615293], [-122.378545, 37.605592], [-122.262868, 37.573914], [-122.162091, 37.500222], [-122.130979, 37.503652], [-122.123137, 37.474], [-122.08874, 37.452267], [-122.038599, 37.454622], [-122.055541, 37.49523], [-122.10942, 37.500254], [-122.167587, 37.677178], [-122.204161, 37.711603], [-122.214744, 37.699247], [-122.252172, 37.724952], [-122.261679, 37.743373], [-122.243947, 37.751779], [-122.332037, 37.782035], [-122.342253, 37.805558], [-122.296618, 37.828465], [-122.315913, 37.836812], [-122.299233, 37.840479], [-122.301372, 37.855493], [-122.325193, 37.874276], [-122.308502, 37.87088], [-122.326912, 37.888712], [-122.311399, 37.895794], [-122.364764, 37.917928], [-122.363534, 37.905611], [-122.390546, 37.90911], [-122.430087, 37.963115], [-122.402906, 37.954852], [-122.401004, 37.968532], [-122.367582, 37.978168], [-122.367909, 38.01253], [-122.332552, 38.001502], [-122.283478, 38.022674], [-122.262861, 38.0446], [-122.282824, 38.082889], [-122.393588, 38.143449], [-122.443499, 38.116985], [-122.44478, 38.138345], [-122.497522, 38.115134], [-122.483757, 38.071762], [-122.497828, 38.019402], [-122.447304, 37.984387], [-122.495553, 37.970523], [-122.479512, 37.942526], [-122.50506, 37.936414], [-122.438268, 37.880974], [-122.457999, 37.861769], [-122.501019, 37.893662], [-122.47226, 37.836808], [-122.500006, 37.820911], [-122.529885, 37.817563], [-122.561487, 37.851827], [-122.658823, 37.904738], [-122.725181, 37.902691], [-122.821383, 37.996735], [-122.882114, 38.025273], [-122.956811, 38.02872], [-122.983138, 38.005757], [-122.963544, 37.989914], [-123.024066, 37.994878], [-122.949074, 38.15406], [-122.995631, 38.238626], [-122.972776, 38.229645], [-122.977082, 38.267902], [-123.024333, 38.310573], [-123.063671, 38.302178], [-123.07977, 38.324076], [-123.068265, 38.359865], [-123.128825, 38.450418], [-123.331899, 38.565542], [-123.44613, 38.703693], [-123.514784, 38.741966], [-123.571987, 38.798189], [-123.593252, 38.799033], [-123.659846, 38.872529], [-123.727976, 38.919429], [-123.741921, 38.956228], [-123.711149, 38.977316], [-123.69124, 39.050795], [-123.719366, 39.134516], [-123.771418, 39.194224], [-123.789006, 39.269707], [-123.803848, 39.278771], [-123.796612, 39.301348], [-123.813725, 39.308337], [-123.80089, 39.318267], [-123.827716, 39.348433], [-123.808733, 39.427406], [-123.819884, 39.439489], [-123.766475, 39.552803], [-123.78863, 39.599975], [-123.794235, 39.689995], [-123.829545, 39.723071], [-123.851714, 39.832041], [-123.907664, 39.863028], [-123.930047, 39.909697], [-124.035904, 40.013319], [-124.079983, 40.029773], [-124.080709, 40.06611], [-124.110549, 40.103765], [-124.187874, 40.130542], [-124.360604, 40.257206], [-124.347853, 40.314634], [-124.373599, 40.392923], [-124.408601, 40.443201]]]]}}], "crs": {"type": "name", "properties": {"name": "urn:ogc:def:crs:EPSG::4269"}}}